{"fetched_at":"2026-04-01T16:59:04Z","count":11445,"tles":[{"name":"STARLINK-37001","line1":"1 68330U 26059K   26090.66668981  .00033367  00000+0  17212-3 0  9996","line2":"2 68330  53.1594 252.6727 0001492  95.5554 151.5333 15.80850233  2579","category":"Starlink"}]}